NORAD_CAT_ID,OBJECT_NAME,OBJECT_TYPE,EPOCH,MEAN_MOTION,ECCENTRICITY,INCLINATION,RA_OF_ASC_NODE,ARG_OF_PERICENTER,MEAN_ANOMALY,BSTAR,MEAN_MOTION_DOT,MEAN_MOTION_DDOT,TLE_LINE0,TLE_LINE1,TLE_LINE2,SEMIMAJOR_AXIS,PERIOD,APOGEE,PERIGEE,DECAYED
51728.0,STARLINK-3448,PAYLOAD,2023-06-20 04:56:04,15.08836888,0.0001092,53.2165,99.0403,115.9272,244.1832,4.9789e-05,5.05e-06,0.0,0 STARLINK-3448,1 51728U 22016Q   23171.20561285  .00000505  00000-0  49789-4 0  9998,2 51728  53.2165  99.0403 0001092 115.9272 244.1832 15.08836888 74719,6917.89,95.438,540.51,538.999,0.0
51728.0,STARLINK-3448,PAYLOAD,2023-06-21 01:36:05,15.08847408,0.0001153,53.2169,95.1742,102.48,257.6321,8.0186e-05,9.89e-06,0.0,0 STARLINK-3448,1 51728U 22016Q   23172.06672503  .00000989  00000-0  80186-4 0  9991,2 51728  53.2169  95.1742 0001153 102.4800 257.6321 15.08847408 74848,6917.858,95.437,540.52,538.925,0.0
51728.0,STARLINK-3448,PAYLOAD,2023-06-21 04:46:51,15.08829346,0.0001324,53.2176,94.5794,105.482,254.6318,0.00034065,5.136e-05,0.0,0 STARLINK-3448,1 51728U 22016Q   23172.19920774  .00005136  00000-0  34065-3 0  9994,2 51728  53.2176  94.5794 0001324 105.4820 254.6318 15.08829346 74867,6917.913,95.438,540.694,538.862,0.0
51728.0,STARLINK-3448,PAYLOAD,2023-06-22 01:26:52,15.08836486,0.0001121,53.2168,90.7141,87.4382,272.6739,2.9112e-05,1.76e-06,0.0,0 STARLINK-3448,1 51728U 22016Q   23173.06033518  .00000176  00000-0  29112-4 0  9999,2 51728  53.2168  90.7141 0001121  87.4382 272.6739 15.08836486 74993,6917.891,95.438,540.532,538.981,0.0
51728.0,STARLINK-3448,PAYLOAD,2023-06-23 01:17:39,15.08853406,0.0001045,53.2168,86.2554,95.73,264.3811,6.659e-05,7.73e-06,0.0,0 STARLINK-3448,1 51728U 22016Q   23174.05392481  .00000773  00000-0  66590-4 0  9990,2 51728  53.2168  86.2554 0001045  95.7300 264.3811 15.08853406 75146,6917.839,95.437,540.427,538.981,0.0
51728.0,STARLINK-3448,PAYLOAD,2023-06-23 10:49:58,15.08843511,0.0001253,53.2168,84.4701,92.5098,267.6038,1.1737e-05,-1.01e-06,0.0,0 STARLINK-3448,1 51728U 22016Q   23174.45137105 -.00000101  00000-0  11737-4 0  9993,2 51728  53.2168  84.4701 0001253  92.5098 267.6038 15.08843511 75200,6917.87,95.437,540.601,538.868,0.0
51728.0,STARLINK-3448,PAYLOAD,2023-06-23 18:46:54,15.08834756,0.0001453,53.2172,82.9853,96.4875,263.6282,1.5806e-05,-3.6e-07,0.0,0 STARLINK-3448,1 51728U 22016Q   23174.78258005 -.00000036  00000-0  15806-4 0  9990,2 51728  53.2172  82.9853 0001453  96.4875 263.6282 15.08834756 75257,6917.896,95.438,540.767,538.756,0.0
51728.0,STARLINK-3448,PAYLOAD,2023-06-25 02:34:36,15.08856209,0.0001332,53.2174,77.0387,108.7994,251.3143,6.2612e-05,7.09e-06,0.0,0 STARLINK-3448,1 51728U 22016Q   23176.10736837  .00000709  00000-0  62612-4 0  9995,2 51728  53.2174  77.0387 0001332 108.7994 251.3143 15.08856209 75450,6917.831,95.437,540.617,538.774,0.0
51728.0,STARLINK-3448,PAYLOAD,2023-06-25 10:31:33,15.08840964,0.0001586,53.2175,75.551,82.5208,277.5964,-3.5529e-05,-8.53e-06,0.0,0 STARLINK-3448,1 51728U 22016Q   23176.43858168 -.00000853  00000-0 -35529-4 0  9992,2 51728  53.2175  75.5510 0001586  82.5208 277.5964 15.08840964 75508,6917.877,95.437,540.84,538.645,0.0
51728.0,STARLINK-3448,PAYLOAD,2023-06-26 16:43:53,15.08838595,0.0001214,53.2167,69.9024,84.4435,275.6695,8.6605e-05,1.091e-05,0.0,0 STARLINK-3448,1 51728U 22016Q   23177.69714213  .00001091  00000-0  86605-4 0  9997,2 51728  53.2167  69.9024 0001214  84.4435 275.6695 15.08838595 75694,6917.885,95.438,540.59,538.91,0.0
51728.0,STARLINK-3448,PAYLOAD,2023-06-27 19:45:26,15.08838578,0.0001215,53.2163,64.8471,81.9023,278.2107,0.00010901,1.447e-05,0.0,0 STARLINK-3448,1 51728U 22016Q   23178.82322157  .00001447  00000-0  10901-3 0  9995,2 51728  53.2163  64.8471 0001215  81.9023 278.2107 15.08838578 75863,6917.885,95.438,540.59,538.909,0.0
51728.0,STARLINK-3448,PAYLOAD,2023-06-29 01:57:46,15.08839643,0.0001144,53.2175,59.1966,83.8252,276.287,5.2458e-05,5.47e-06,0.0,0 STARLINK-3448,1 51728U 22016Q   23180.08178353  .00000547  00000-0  52458-4 0  9997,2 51728  53.2175  59.1966 0001144  83.8252 276.2870 15.08839643 76059,6917.881,95.438,540.538,538.955,0.0
51728.0,STARLINK-3448,PAYLOAD,2023-06-30 16:07:01,15.08832921,0.000124,53.2178,52.0578,75.5698,284.5432,3.5768e-05,2.81e-06,0.0,0 STARLINK-3448,1 51728U 22016Q   23181.67155047  .00000281  00000-0  35768-4 0  9998,2 51728  53.2178  52.0578 0001240  75.5698 284.5432 15.08832921 76296,6917.902,95.438,540.625,538.909,0.0
51728.0,STARLINK-3448,PAYLOAD,2023-07-01 01:39:20,15.08839074,0.000107,53.2176,50.275,80.3763,279.735,6.4611e-05,7.41e-06,0.0,0 STARLINK-3448,1 51728U 22016Q   23182.06898590  .00000741  00000-0  64611-4 0  9999,2 51728  53.2176  50.2750 0001070  80.3763 279.7350 15.08839074 76352,6917.883,95.438,540.488,539.008,0.0
51728.0,STARLINK-3448,PAYLOAD,2023-07-01 08:00:53,15.08834069,9.72e-05,53.218,49.0858,83.8568,276.2535,2.2199e-05,6.6e-07,0.0,0 STARLINK-3448,1 51728U 22016Q   23182.33395085  .00000066  00000-0  22199-4 0  9995,2 51728  53.2180  49.0858 0000972  83.8568 276.2535 15.08834069 76393,6917.899,95.438,540.436,539.091,0.0
51728.0,STARLINK-3448,PAYLOAD,2023-07-01 22:19:21,15.08844141,0.0001073,53.218,46.4091,81.3004,278.8109,8.5545e-06,-1.52e-06,0.0,0 STARLINK-3448,1 51728U 22016Q   23182.93010665 -.00000152  00000-0  85545-5 0  9991,2 51728  53.2180  46.4091 0001073  81.3004 278.8109 15.08844141 76481,6917.868,95.437,540.475,538.99,0.0
51728.0,STARLINK-3448,PAYLOAD,2023-07-02 14:13:12,15.08834889,0.0001104,53.2177,43.4357,90.7938,269.318,0.00013113,1.799e-05,0.0,0 STARLINK-3448,1 51728U 22016Q   23183.59250996  .00001799  00000-0  13113-3 0  9994,2 51728  53.2177  43.4357 0001104  90.7938 269.3180 15.08834889 76587,6917.896,95.438,540.525,538.997,0.0
51728.0,STARLINK-3448,PAYLOAD,2023-07-03 22:00:55,15.08846746,0.0001127,53.2182,37.4894,86.3771,273.735,0.00010294,1.351e-05,0.0,0 STARLINK-3448,1 51728U 22016Q   23184.91730450  .00001351  00000-0  10294-3 0  9990,2 51728  53.2182  37.4894 0001127  86.3771 273.7350 15.08846746 76788,6917.86,95.437,540.504,538.945,0.0
51728.0,STARLINK-3448,PAYLOAD,2023-07-04 13:54:46,15.08845434,0.0001365,53.2178,34.516,96.5847,263.5301,-6.9084e-05,-1.387e-05,0.0,0 STARLINK-3448,1 51728U 22016Q   23185.57971055 -.00001387  00000-0 -69084-4 0  9994,2 51728  53.2178  34.5160 0001365  96.5847 263.5301 15.08845434 76885,6917.864,95.437,540.673,538.784,0.0
51728.0,STARLINK-3448,PAYLOAD,2023-07-05 12:10:11,15.08833083,0.0001168,53.2184,30.3538,85.855,274.2576,0.00016758,2.38e-05,0.0,0 STARLINK-3448,1 51728U 22016Q   23186.50707335  .00002380  00000-0  16758-3 0  9997,2 51728  53.2184  30.3538 0001168  85.8550 274.2576 15.08833083 77025,6917.902,95.438,540.575,538.959,0.0
51728.0,STARLINK-3448,PAYLOAD,2023-07-05 23:17:52,15.08845336,0.0001192,53.2186,28.2716,86.0145,274.0984,6.9353e-05,8.16e-06,0.0,0 STARLINK-3448,1 51728U 22016Q   23186.97074648  .00000816  00000-0  69353-4 0  9994,2 51728  53.2186  28.2716 0001192  86.0145 274.0984 15.08845336 77093,6917.864,95.437,540.554,538.904,0.0
51728.0,STARLINK-3448,PAYLOAD,2023-07-06 13:36:20,15.0884078,0.000111,53.2184,25.5945,81.9275,278.1843,8.9887e-05,1.143e-05,0.0,0 STARLINK-3448,1 51728U 22016Q   23187.56690909  .00001143  00000-0  89887-4 0  9992,2 51728  53.2184  25.5945 0001110  81.9275 278.1843 15.08840780 77180,6917.878,95.438,540.511,538.975,0.0
51728.0,STARLINK-3448,PAYLOAD,2023-07-06 19:57:53,15.08846705,0.0001137,53.2185,24.4046,85.0304,275.0818,0.00013618,1.881e-05,0.0,0 STARLINK-3448,1 51728U 22016Q   23187.83186389  .00001881  00000-0  13618-3 0  9991,2 51728  53.2185  24.4046 0001137  85.0304 275.0818 15.08846705 77224,6917.86,95.437,540.511,538.938,0.0
51728.0,STARLINK-3448,PAYLOAD,2023-07-07 19:48:40,15.08842284,0.0001028,53.2182,19.9456,83.7094,276.4015,6.0405e-05,6.74e-06,0.0,0 STARLINK-3448,1 51728U 22016Q   23188.82546908  .00000674  00000-0  60405-4 0  9994,2 51728  53.2182  19.9456 0001028  83.7094 276.4015 15.08842284 77373,6917.873,95.437,540.45,539.027,0.0
51728.0,STARLINK-3448,PAYLOAD,2023-07-08 19:39:28,15.08837288,9.43e-05,53.2177,15.4851,88.6308,271.4792,-7.9268e-06,-4.14e-06,0.0,0 STARLINK-3448,1 51728U 22016Q   23189.81907504 -.00000414  00000-0 -79268-5 0  9999,2 51728  53.2177  15.4851 0000943  88.6308 271.4792 15.08837288 77526,6917.889,95.438,540.406,539.101,0.0
51728.0,STARLINK-3448,PAYLOAD,2023-07-09 11:33:20,15.08830571,9.55e-05,53.2178,12.511,79.4146,280.6954,1.2283e-05,-9.2e-07,0.0,0 STARLINK-3448,1 51728U 22016Q   23190.48148166 -.00000092  00000-0  12283-4 0  9999,2 51728  53.2178  12.5110 0000955  79.4146 280.6954 15.08830571 77625,6917.909,95.438,540.435,539.114,0.0
51728.0,STARLINK-3448,PAYLOAD,2023-07-10 05:02:34,15.08840541,9.87e-05,53.218,9.24,89.0039,271.1067,4.3806e-05,4.1e-06,0.0,0 STARLINK-3448,1 51728U 22016Q   23191.21011625  .00000410  00000-0  43806-4 0  9998,2 51728  53.2180   9.2400 0000987  89.0039 271.1067 15.08840541 77736,6917.879,95.438,540.427,539.061,0.0
51728.0,STARLINK-3448,PAYLOAD,2023-07-10 19:21:01,15.0884865,9.14e-05,53.2189,6.5639,80.9737,279.1359,0.0001367,1.889e-05,0.0,0 STARLINK-3448,1 51728U 22016Q   23191.80627043  .00001889  00000-0  13670-3 0  9996,2 51728  53.2189   6.5639 0000914  80.9737 279.1359 15.08848650 77825,6917.854,95.437,540.351,539.087,0.0
51728.0,STARLINK-3448,PAYLOAD,2023-07-11 11:14:53,15.08836095,9.24e-05,53.2185,3.5901,89.8596,270.2502,0.00014219,1.976e-05,0.0,0 STARLINK-3448,1 51728U 22016Q   23192.46867835  .00001976  00000-0  14219-3 0  9991,2 51728  53.2185   3.5901 0000924  89.8596 270.2502 15.08836095 77925,6917.892,95.438,540.397,539.118,0.0
51728.0,STARLINK-3448,PAYLOAD,2023-07-12 17:27:12,15.08845566,9.46e-05,53.2178,357.9397,90.0837,270.0264,6.0603e-05,6.77e-06,0.0,0 STARLINK-3448,1 51728U 22016Q   23193.72723314  .00000677  00000-0  60603-4 0  9990,2 51728  53.2178 357.9397 0000946  90.0837 270.0264 15.08845566 78116,6917.863,95.437,540.383,539.074,0.0
